{
  "type": "FeatureCollection",
  "features": [
    {
      "type": "Feature",
      "properties": {
        "norad_id": 37836,
        "name": "EUTELSAT 16A",
        "group": "eutelsat",
        "lat": 0.0815659099004627,
        "lon": 55.40507925609359,
        "alt_km": 35807.08489720409,
        "timestamp": "2025-12-20T20:38:44.115178+00:00",
        "meta_object_name": "EUTELSAT 16A",
        "meta_object_id": "2011-057A",
        "meta_epoch": "2025-12-20T06:27:32.521824",
        "meta_mean_motion": 1.00269222,
        "meta_eccentricity": 0.00058619,
        "meta_inclination": 0.06,
        "meta_ra_of_asc_node": 337.379,
        "meta_arg_of_pericenter": 292.999,
        "meta_mean_anomaly": 291.622,
        "meta_ephemeris_type": 0,
        "meta_classification_type": "U",
        "meta_norad_cat_id": 37836,
        "meta_element_set_no": 999,
        "meta_rev_at_epoch": 553,
        "meta_bstar": 0,
        "meta_mean_motion_dot": 1.28e-06,
        "meta_mean_motion_ddot": 0,
        "tle_line1": "1 37836U 11057A   25354.26912641  .00000128  00000+0  00000+0 0  9990",
        "tle_line2": "2 37836   0.0600 337.3790 0005861 292.9990 291.6220  1.00269222  5536"
      },
      "geometry": {
        "type": "Point",
        "coordinates": [
          55.40507925609359,
          0.0815659099004627
        ]
      }
    },
    {
      "type": "Feature",
      "properties": {
        "norad_id": 38992,
        "name": "EUTELSAT 21B",
        "group": "eutelsat",
        "lat": 0.09240422857299925,
        "lon": 60.98179871937947,
        "alt_km": 35798.529447162,
        "timestamp": "2025-12-20T20:38:44.115189+00:00",
        "meta_object_name": "EUTELSAT 21B",
        "meta_object_id": "2012-062B",
        "meta_epoch": "2025-12-20T13:20:00.517056",
        "meta_mean_motion": 1.00269096,
        "meta_eccentricity": 0.00032733,
        "meta_inclination": 0.0689,
        "meta_ra_of_asc_node": 339.9936,
        "meta_arg_of_pericenter": 293.2201,
        "meta_mean_anomaly": 37.7784,
        "meta_ephemeris_type": 0,
        "meta_classification_type": "U",
        "meta_norad_cat_id": 38992,
        "meta_element_set_no": 999,
        "meta_rev_at_epoch": 4803,
        "meta_bstar": 0,
        "meta_mean_motion_dot": 1.53e-06,
        "meta_mean_motion_ddot": 0,
        "tle_line1": "1 38992U 12062B   25354.55556154  .00000153  00000+0  00000+0 0  9994",
        "tle_line2": "2 38992   0.0689 339.9936 0003273 293.2201  37.7784  1.00269096 48036"
      },
      "geometry": {
        "type": "Point",
        "coordinates": [
          60.98179871937947,
          0.09240422857299925
        ]
      }
    },
    {
      "type": "Feature",
      "properties": {
        "norad_id": 39020,
        "name": "EUTELSAT 70B",
        "group": "eutelsat",
        "lat": 0.08463911976341532,
        "lon": 109.82375674943677,
        "alt_km": 35800.841328220646,
        "timestamp": "2025-12-20T20:38:44.115202+00:00",
        "meta_object_name": "EUTELSAT 70B",
        "meta_object_id": "2012-069A",
        "meta_epoch": "2025-12-20T10:08:33.853056",
        "meta_mean_motion": 1.00271448,
        "meta_eccentricity": 0.00042783,
        "meta_inclination": 0.0611,
        "meta_ra_of_asc_node": 4.4052,
        "meta_arg_of_pericenter": 249.3887,
        "meta_mean_anomaly": 58.0942,
        "meta_ephemeris_type": 0,
        "meta_classification_type": "U",
        "meta_norad_cat_id": 39020,
        "meta_element_set_no": 999,
        "meta_rev_at_epoch": 4771,
        "meta_bstar": 0,
        "meta_mean_motion_dot": -2e-07,
        "meta_mean_motion_ddot": 0,
        "tle_line1": "1 39020U 12069A   25354.42261404 -.00000020  00000+0  00000+0 0  9995",
        "tle_line2": "2 39020   0.0611   4.4052 0004278 249.3887  58.0942  1.00271448 47715"
      },
      "geometry": {
        "type": "Point",
        "coordinates": [
          109.82375674943677,
          0.08463911976341532
        ]
      }
    },
    {
      "type": "Feature",
      "properties": {
        "norad_id": 39122,
        "name": "EUTELSAT 117 WEST A",
        "group": "eutelsat",
        "lat": -0.02897939928227936,
        "lon": -77.4083581862105,
        "alt_km": 35773.4360800065,
        "timestamp": "2025-12-20T20:38:44.115214+00:00",
        "meta_object_name": "EUTELSAT 117 WEST A",
        "meta_object_id": "2013-012A",
        "meta_epoch": "2025-12-20T10:15:38.712960",
        "meta_mean_motion": 1.00274588,
        "meta_eccentricity": 0.00028226,
        "meta_inclination": 0.0305,
        "meta_ra_of_asc_node": 302.0312,
        "meta_arg_of_pericenter": 332.7573,
        "meta_mean_anomaly": 211.6045,
        "meta_ephemeris_type": 0,
        "meta_classification_type": "U",
        "meta_norad_cat_id": 39122,
        "meta_element_set_no": 999,
        "meta_rev_at_epoch": 4664,
        "meta_bstar": 0,
        "meta_mean_motion_dot": 1e-07,
        "meta_mean_motion_ddot": 0,
        "tle_line1": "1 39122U 13012A   25354.42753140  .00000010  00000+0  00000+0 0  9998",
        "tle_line2": "2 39122   0.0305 302.0312 0002822 332.7573 211.6045  1.00274588 46646"
      },
      "geometry": {
        "type": "Point",
        "coordinates": [
          -77.4083581862105,
          -0.02897939928227936
        ]
      }
    },
    {
      "type": "Feature",
      "properties": {
        "norad_id": 39163,
        "name": "EUTELSAT 7B",
        "group": "eutelsat",
        "lat": 0.06854726584594467,
        "lon": 46.40912080049123,
        "alt_km": 35784.44539507774,
        "timestamp": "2025-12-20T20:38:44.115226+00:00",
        "meta_object_name": "EUTELSAT 7B",
        "meta_object_id": "2013-022A",
        "meta_epoch": "2025-12-20T06:24:55.272960",
        "meta_mean_motion": 1.00270737,
        "meta_eccentricity": 0.0004381,
        "meta_inclination": 0.0652,
        "meta_ra_of_asc_node": 359.0101,
        "meta_arg_of_pericenter": 323.4978,
        "meta_mean_anomaly": 229.8249,
        "meta_ephemeris_type": 0,
        "meta_classification_type": "U",
        "meta_norad_cat_id": 39163,
        "meta_element_set_no": 999,
        "meta_rev_at_epoch": 4615,
        "meta_bstar": 0,
        "meta_mean_motion_dot": 7.2e-07,
        "meta_mean_motion_ddot": 0,
        "tle_line1": "1 39163U 13022A   25354.26730640  .00000072  00000+0  00000+0 0  9994",
        "tle_line2": "2 39163   0.0652 359.0101 0004381 323.4978 229.8249  1.00270737 46157"
      },
      "geometry": {
        "type": "Point",
        "coordinates": [
          46.40912080049123,
          0.06854726584594467
        ]
      }
    },
    {
      "type": "Feature",
      "properties": {
        "norad_id": 39612,
        "name": "EXPRESS-AT1",
        "group": "eutelsat",
        "lat": 0.035741853349273,
        "lon": 95.35464550117862,
        "alt_km": 35782.826008943644,
        "timestamp": "2025-12-20T20:38:44.115238+00:00",
        "meta_object_name": "EXPRESS-AT1",
        "meta_object_id": "2014-010A",
        "meta_epoch": "2025-12-20T16:55:13.052352",
        "meta_mean_motion": 1.00274267,
        "meta_eccentricity": 8.84e-05,
        "meta_inclination": 0.0178,
        "meta_ra_of_asc_node": 323.8869,
        "meta_arg_of_pericenter": 178.6158,
        "meta_mean_anomaly": 256.8348,
        "meta_ephemeris_type": 0,
        "meta_classification_type": "U",
        "meta_norad_cat_id": 39612,
        "meta_element_set_no": 999,
        "meta_rev_at_epoch": 4302,
        "meta_bstar": 0,
        "meta_mean_motion_dot": 1.02e-06,
        "meta_mean_motion_ddot": 0,
        "tle_line1": "1 39612U 14010A   25354.70501218  .00000102  00000+0  00000+0 0  9991",
        "tle_line2": "2 39612   0.0178 323.8869 0000884 178.6158 256.8348  1.00274267 43028"
      },
      "geometry": {
        "type": "Point",
        "coordinates": [
          95.35464550117862,
          0.035741853349273
        ]
      }
    },
    {
      "type": "Feature",
      "properties": {
        "norad_id": 39613,
        "name": "EXPRESS-AT2",
        "group": "eutelsat",
        "lat": -0.014297660530323001,
        "lon": 179.2072464241533,
        "alt_km": 35787.84519573429,
        "timestamp": "2025-12-20T20:38:44.115250+00:00",
        "meta_object_name": "EXPRESS-AT2",
        "meta_object_id": "2014-010B",
        "meta_epoch": "2025-12-20T14:07:41.615040",
        "meta_mean_motion": 1.00271282,
        "meta_eccentricity": 0.00010295,
        "meta_inclination": 0.0178,
        "meta_ra_of_asc_node": 326.0495,
        "meta_arg_of_pericenter": 324.7522,
        "meta_mean_anomaly": 150.3983,
        "meta_ephemeris_type": 0,
        "meta_classification_type": "U",
        "meta_norad_cat_id": 39613,
        "meta_element_set_no": 999,
        "meta_rev_at_epoch": 4271,
        "meta_bstar": 0,
        "meta_mean_motion_dot": -2.58e-06,
        "meta_mean_motion_ddot": 0,
        "tle_line1": "1 39613U 14010B   25354.58867610 -.00000258  00000+0  00000+0 0  9992",
        "tle_line2": "2 39613   0.0178 326.0495 0001029 324.7522 150.3983  1.00271282 42712"
      },
      "geometry": {
        "type": "Point",
        "coordinates": [
          179.2072464241533,
          -0.014297660530323001
        ]
      }
    }
  ]
}